IRIDIUM 166             
1 43570U 18061B   25184.52220442 -.00000039  00000+0 -21152-4 0  9994
2 43570  86.3984 202.4139 0001969  87.4901 272.6520 14.34217239363422
IRIDIUM 158             
1 43571U 18061C   25183.79280451  .00000016  00000+0 -14896-5 0  9991
2 43571  86.3984 202.7284 0002323  87.1625 272.9837 14.34217233363284
IRIDIUM 165             
1 43572U 18061D   25184.02748257  .00000169  00000+0  53342-4 0  9998
2 43572  86.3983 202.6703 0002194  93.2521 266.8926 14.34217332363346
IRIDIUM 155             
1 43573U 18061E   25184.05919525  .00000038  00000+0  65212-5 0  9995
2 43573  86.3978 202.5434 0002366  83.5040 276.6425 14.34217583363329
IRIDIUM 154             
1 43574U 18061F   25184.52854694 -.00000008  00000+0 -98551-5 0  9994
2 43574  86.3986 202.4634 0002182  90.0661 270.0785 14.34217481363434
IRIDIUM 163             
1 43575U 18061G   25184.50951952  .00000007  00000+0 -46373-5 0  9991
2 43575  86.3984 202.3977 0002375  89.9901 270.1566 14.34217652363405
IRIDIUM 156             
1 43576U 18061H   25183.78646421  .00000123  00000+0  36831-4 0  9998
2 43576  86.3978 202.7067 0002212  81.9721 278.1726 14.34217650363285
IRIDIUM 164             
1 43577U 18061J   25184.53488972 -.00000039  00000+0 -20851-4 0  9991
2 43577  86.3986 202.4288 0001955  92.9709 267.1711 14.34217193363440
